{
    "bodies": [
        {
            "name": "TNO-100",
            "mass": 0,
            "semi_major_axis": 184.1796875,
            "eccentricity": 0.009765624999999998,
            "inclination": 0.04261057744126781,
            "longitude_of_ascending_node": 4.454659063736112,
            "argument_of_perihelion": 1.056367016516881,
            "mean_anomaly": 2.504947426892587
        },
        {
            "name": "TNO-101",
            "mass": 0,
            "semi_major_axis": 184.521484375,
            "eccentricity": 0.009863281249999998,
            "inclination": 0.04303668321568049,
            "longitude_of_ascending_node": 2.901259092800571,
            "argument_of_perihelion": 3.0661098283875674,
            "mean_anomaly": 5.580306364131517
        },
        {
            "name": "TNO-102",
            "mass": 0,
            "semi_major_axis": 184.86328125,
            "eccentricity": 0.009960937499999998,
            "inclination": 0.04346278899009317,
            "longitude_of_ascending_node": 0.4605080957078503,
            "argument_of_perihelion": 4.618182461738531,
            "mean_anomaly": 6.00214714177623
        },
        {
            "name": "TNO-103",
            "mass": 0,
            "semi_major_axis": 185.205078125,
            "eccentricity": 0.010058593749999997,
            "inclination": 0.043888894764505845,
            "longitude_of_ascending_node": 6.183193200347049,
            "argument_of_perihelion": 0.3745442773948548,
            "mean_anomaly": 2.3369215996631167
        },
        {
            "name": "TNO-104",
            "mass": 0,
            "semi_major_axis": 185.546875,
            "eccentricity": 0.010156249999999999,
            "inclination": 0.04431500053891852,
            "longitude_of_ascending_node": 5.185284496583221,
            "argument_of_perihelion": 3.6645888035453416,
            "mean_anomaly": 4.083722945128299
        },
        {
            "name": "TNO-105",
            "mass": 0,
            "semi_major_axis": 185.888671875,
            "eccentricity": 0.010253906249999998,
            "inclination": 0.044741106313331204,
            "longitude_of_ascending_node": 4.641309904952311,
            "argument_of_perihelion": 4.8654204271474155,
            "mean_anomaly": 1.7568334959988312
        },
        {
            "name": "TNO-106",
            "mass": 0,
            "semi_major_axis": 186.23046875,
            "eccentricity": 0.010351562499999998,
            "inclination": 0.04516721208774388,
            "longitude_of_ascending_node": 2.4796403158664986,
            "argument_of_perihelion": 5.118472138686983,
            "mean_anomaly": 2.2663775826840653
        },
        {
            "name": "TNO-107",
            "mass": 0,
            "semi_major_axis": 186.572265625,
            "eccentricity": 0.010449218749999998,
            "inclination": 0.045593317862156556,
            "longitude_of_ascending_node": 0.21061185560333334,
            "argument_of_perihelion": 4.393235404562056,
            "mean_anomaly": 1.726863799312995
        },
        {
            "name": "TNO-108",
            "mass": 0,
            "semi_major_axis": 186.9140625,
            "eccentricity": 0.010546874999999997,
            "inclination": 0.04601942363656924,
            "longitude_of_ascending_node": 1.0956558359664317,
            "argument_of_perihelion": 0.1885468925003027,
            "mean_anomaly": 1.5595994795348016
        },
        {
            "name": "TNO-109",
            "mass": 0,
            "semi_major_axis": 187.255859375,
            "eccentricity": 0.010644531249999997,
            "inclination": 0.046445529410981914,
            "longitude_of_ascending_node": 0.4597382773006155,
            "argument_of_perihelion": 2.709187037715675,
            "mean_anomaly": 1.656069357655812
        },
        {
            "name": "TNO-110",
            "mass": 0,
            "semi_major_axis": 187.59765625,
            "eccentricity": 0.010742187499999998,
            "inclination": 0.04687163518539459,
            "longitude_of_ascending_node": 0.80194905223605,
            "argument_of_perihelion": 4.002988044958956,
            "mean_anomaly": 0.35988175238176007
        },
        {
            "name": "TNO-111",
            "mass": 0,
            "semi_major_axis": 187.939453125,
            "eccentricity": 0.010839843749999998,
            "inclination": 0.04729774095980727,
            "longitude_of_ascending_node": 4.4244790591394985,
            "argument_of_perihelion": 4.995258461082459,
            "mean_anomaly": 2.085147762294275
        },
        {
            "name": "TNO-112",
            "mass": 0,
            "semi_major_axis": 188.28125,
            "eccentricity": 0.010937499999999998,
            "inclination": 0.04772384673421995,
            "longitude_of_ascending_node": 3.011769477957025,
            "argument_of_perihelion": 0.7204066541559754,
            "mean_anomaly": 4.853091966208188
        },
        {
            "name": "TNO-113",
            "mass": 0,
            "semi_major_axis": 188.623046875,
            "eccentricity": 0.011035156249999997,
            "inclination": 0.048149952508632625,
            "longitude_of_ascending_node": 3.8183791020644757,
            "argument_of_perihelion": 6.125402772627004,
            "mean_anomaly": 1.6530898557397915
        },
        {
            "name": "TNO-114",
            "mass": 0,
            "semi_major_axis": 188.96484375,
            "eccentricity": 0.011132812499999997,
            "inclination": 0.04857605828304531,
            "longitude_of_ascending_node": 4.6797474461074335,
            "argument_of_perihelion": 5.09738345587654,
            "mean_anomaly": 1.1352886536698399
        },
        {
            "name": "TNO-115",
            "mass": 0,
            "semi_major_axis": 189.306640625,
            "eccentricity": 0.011230468749999998,
            "inclination": 0.049002164057457984,
            "longitude_of_ascending_node": 6.075353579691182,
            "argument_of_perihelion": 0.07224551748897999,
            "mean_anomaly": 5.067695541266067
        },
        {
            "name": "TNO-116",
            "mass": 0,
            "semi_major_axis": 189.6484375,
            "eccentricity": 0.011328124999999998,
            "inclination": 0.04942826983187066,
            "longitude_of_ascending_node": 0.6608237682830332,
            "argument_of_perihelion": 5.50930234703342,
            "mean_anomaly": 1.8106103967677074
        },
        {
            "name": "TNO-117",
            "mass": 0,
            "semi_major_axis": 189.990234375,
            "eccentricity": 0.011425781249999998,
            "inclination": 0.049854375606283335,
            "longitude_of_ascending_node": 5.4426431716464805,
            "argument_of_perihelion": 0.7937911051068514,
            "mean_anomaly": 1.1751605650567916
        },
        {
            "name": "TNO-118",
            "mass": 0,
            "semi_major_axis": 190.33203125,
            "eccentricity": 0.011523437499999997,
            "inclination": 0.05028048138069602,
            "longitude_of_ascending_node": 0.3292375835273743,
            "argument_of_perihelion": 1.380481923957056,
            "mean_anomaly": 4.607900292469537
        },
        {
            "name": "TNO-119",
            "mass": 0,
            "semi_major_axis": 190.673828125,
            "eccentricity": 0.011621093749999997,
            "inclination": 0.050706587155108694,
            "longitude_of_ascending_node": 0.5697713584608637,
            "argument_of_perihelion": 0.7666976511899688,
            "mean_anomaly": 3.327013138027666
        },
        {
            "name": "TNO-120",
            "mass": 0,
            "semi_major_axis": 191.015625,
            "eccentricity": 0.011718749999999997,
            "inclination": 0.05113269292952137,
            "longitude_of_ascending_node": 5.8728726179939335,
            "argument_of_perihelion": 0.5681839836298351,
            "mean_anomaly": 2.272224665412291
        },
        {
            "name": "TNO-121",
            "mass": 0,
            "semi_major_axis": 191.357421875,
            "eccentricity": 0.011816406249999998,
            "inclination": 0.05155879870393405,
            "longitude_of_ascending_node": 5.731854256150238,
            "argument_of_perihelion": 3.818023266566494,
            "mean_anomaly": 5.90153267374655
        },
        {
            "name": "TNO-122",
            "mass": 0,
            "semi_major_axis": 191.69921875,
            "eccentricity": 0.011914062499999998,
            "inclination": 0.05198490447834673,
            "longitude_of_ascending_node": 5.398948859612289,
            "argument_of_perihelion": 3.530515388737971,
            "mean_anomaly": 1.555879471928855
        },
        {
            "name": "TNO-123",
            "mass": 0,
            "semi_major_axis": 192.041015625,
            "eccentricity": 0.012011718749999997,
            "inclination": 0.052411010252759405,
            "longitude_of_ascending_node": 2.616713687400426,
            "argument_of_perihelion": 2.0851821170943663,
            "mean_anomaly": 1.2199883923786576
        },
        {
            "name": "TNO-124",
            "mass": 0,
            "semi_major_axis": 192.3828125,
            "eccentricity": 0.012109374999999997,
            "inclination": 0.05283711602717209,
            "longitude_of_ascending_node": 3.8149826139236125,
            "argument_of_perihelion": 5.845884840048311,
            "mean_anomaly": 3.012332883717341
        }
    ]
}